GSAT0101 (GALILEO-PFM)  
1 37846U 11060A   25106.40114140 -.00000082  00000+0  00000+0 0  9994
2 37846  57.1027 353.3292 0004042  18.6205 341.4438  1.70476032 83841
GSAT0102 (GALILEO-FM2)  
1 37847U 11060B   25104.87055703 -.00000087  00000+0  00000+0 0  9998
2 37847  57.1041 353.3710 0004859 351.0412 194.9929  1.70476205 83829
GSAT0103 (GALILEO-FM3)  
1 38857U 12055A   25107.61388077  .00000060  00000+0  00000+0 0  9993
2 38857  55.5567 113.2343 0006046 283.6494  76.3027  1.70473581 77752
GSAT0201 (GALILEO 5)    
1 40128U 14050A   25108.69497044 -.00000020  00000+0  00000+0 0  9995
2 40128  49.3385 290.7339 1626366 162.9944 203.1757  1.85519800 72389
GSAT0202 (GALILEO 6)    
1 40129U 14050B   25109.49107841 -.00000016  00000+0  00000+0 0  9993
2 40129  49.3533 289.7827 1626385 163.8045 202.0844  1.85520483 72584
GSAT0203 (GALILEO 7)    
1 40544U 15017A   25108.52619357 -.00000076  00000+0  00000+0 0  9997
2 40544  56.8959 353.1643 0004453 291.2288  68.7718  1.70475829 62620
GSAT0204 (GALILEO 8)    
1 40545U 15017B   25108.19450559 -.00000077  00000+0  00000+0 0  9999
2 40545  56.9036 353.1900 0002689 286.0209  73.9978  1.70475636 62620
GSAT0205 (GALILEO 9)    
1 40889U 15045A   25106.78952639  .00000006  00000+0  00000+0 0  9991
2 40889  55.0918 233.3814 0004689  46.4253 313.5902  1.70474035 59743
GSAT0206 (GALILEO 10)   
1 40890U 15045B   25108.18333094  .00000010  00000+0  00000+0 0  9992
2 40890  55.0905 233.3384 0002535  48.0069 311.9981  1.70473995 59792
GSAT0209 (GALILEO 12)   
1 41174U 15079A   25107.76534677  .00000060  00000+0  00000+0 0  9993
2 41174  55.5763 112.9421 0005518 315.8708  44.1038  1.70474397 58107
GSAT0208 (GALILEO 11)   
1 41175U 15079B   25109.15848099  .00000064  00000+0  00000+0 0  9999
2 41175  55.5757 112.9012 0004895 315.8815  44.0985  1.70474279 58124
GSAT0211 (GALILEO 14)   
1 41549U 16030A   25107.52248463  .00000009  00000+0  00000+0 0  9999
2 41549  55.2393 233.4008 0002409   8.7222 351.2625  1.70474082 55397
GSAT0210 (GALILEO 13)   
1 41550U 16030B   25107.78026778  .00000009  00000+0  00000+0 0  9992
2 41550  55.2393 233.3919 0002214 207.7508 152.2192  1.70474151 55396
GSAT0207 (GALILEO 15)   
1 41859U 16069A   25108.64536087  .00000061  00000+0  00000+0 0  9999
2 41859  55.2444 112.8448 0005898 304.8859  55.0771  1.70474328 52387
GSAT0212 (GALILEO 16)   
1 41860U 16069B   25108.49929315  .00000061  00000+0  00000+0 0  9994
2 41860  55.2418 112.8448 0004353 325.2216  34.7684  1.70474518 52411
GSAT0213 (GALILEO 17)   
1 41861U 16069C   25107.69419862  .00000059  00000+0  00000+0 0  9994
2 41861  55.2435 112.8742 0005922 289.6853  70.2695  1.70474856 52390
GSAT0214 (GALILEO 18)   
1 41862U 16069D   25107.83976179  .00000059  00000+0  00000+0 0  9990
2 41862  55.2424 112.8634 0004962 293.2445  66.7218  1.70474659 52392
GSAT0215 (GALILEO 19)   
1 43055U 17079A   25108.91657595  .00000011  00000+0  00000+0 0  9994
2 43055  55.2158 233.1801 0000800 252.2980 107.6789  1.70474746 45758
GSAT0216 (GALILEO 20)   
1 43056U 17079B   25108.03487059  .00000010  00000+0  00000+0 0  9993
2 43056  55.2172 233.2042 0002097 280.7776  79.1819  1.70474897 45723
GSAT0217 (GALILEO 21)   
1 43057U 17079C   25108.25547102  .00000011  00000+0  00000+0 0  9995
2 43057  55.2145 233.1964 0001698 313.1762  46.7934  1.70474773 45741
GSAT0218 (GALILEO 22)   
1 43058U 17079D   25108.47552488  .00000011  00000+0  00000+0 0  9993
2 43058  55.2146 233.1881 0002600 273.6087  86.3461  1.70474768 45744
GSAT0221 (GALILEO 25)   
1 43564U 18060A   25107.20443046 -.00000079  00000+0  00000+0 0  9990
2 43564  57.2780 353.2772 0004085 313.2871  46.7283  1.70475663 41918
GSAT0222 (GALILEO 26)   
1 43565U 18060B   25108.59656390 -.00000076  00000+0  00000+0 0  9999
2 43565  57.2812 353.2423 0002961 285.9853  74.0306  1.70475400 41979
GSAT0219 (GALILEO 23)   
1 43566U 18060C   25106.47167014 -.00000081  00000+0  00000+0 0  9991
2 43566  57.2809 353.3012 0003857 324.7722  35.2520  1.70475644 41914
GSAT0220 (GALILEO 24)   
1 43567U 18060D   25109.03879391 -.00000075  00000+0  00000+0 0  9998
2 43567  57.2803 353.2329 0004152 314.4932  45.5211  1.70475677 41936
GSAT0223 (GALILEO 27)   
1 49809U 21116A   25109.18121748 -.00000075  00000+0  00000+0 0  9991
2 49809  57.2708 353.1214 0000199 240.4260 297.5934  1.70475663 20940
GSAT0224 (GALILEO 28)   
1 49810U 21116B   25107.82544750 -.00000077  00000+0  00000+0 0  9996
2 49810  57.2711 353.1563 0000537 340.8959 197.6109  1.70475844 20955
GSAT0225 (GALILEO 29)   
1 59598U 24079A   25107.54857610  .00000058  00000+0  00000+0 0  9990
2 59598  54.8622 112.9863 0003132 259.7136 100.8206  1.70474877  6049
GSAT0227 (GALILEO 30)   
1 59600U 24079C   25107.14449583  .00000057  00000+0  00000+0 0  9995
2 59600  54.8559 112.9971 0000454 308.8993  51.1166  1.70474745  6107
GSAT0232 (GALILEO 32)   
1 61182U 24167A   25108.08615542  .00000010  00000+0  00000+0 0  9994
2 61182  55.3265 232.9761 0003247 201.0109 212.0112  1.70474351  3627
GSAT0226 (GALILEO 31)   
1 61183U 24167B   25107.89066622  .00000010  00000+0  00000+0 0  9992
2 61183  55.3250 232.9871 0001789 160.5946 245.0186  1.70474452  3608
